Collision

TLE_SAT1_LINE1 = "1 99999U 21001A   20357.34155648  .00000882  00000-0  24124-4 0  9993"
TLE_SAT1_LINE2 = "2 99999  51.6456 180.0000 0001000   0.0000 270.0000 15.50000000    01"

TLE_SAT2_LINE1 = "1 88888U 21002A   20357.34155648  .00000882  00000-0  24124-4 0  9999"
TLE_SAT2_LINE2 = "2 88888  51.6456 180.0000 0001000 180.0000  90.0000 15.50000000    02"
